{"type": "FeatureCollection", "features": [ {"type": "Feature", "properties": {"norad_id": 44804, "name": "CARTOSAT-3", "group": "resource", "lat": 47.213101930726246, "lon": -115.54581254332147, "alt_km": 502.50013644153205, "timestamp": "2025-12-22T20:43:45.500547+00:00", "meta": {"OBJECT_NAME": "CARTOSAT-3", "OBJECT_ID": "2019-081A", "EPOCH": "2025-12-22T13:49:39.686592", "MEAN_MOTION": 15.19234379, "ECCENTRICITY": 0.00137848, "INCLINATION": 97.4572, "RA_OF_ASC_NODE": 56.0348, "ARG_OF_PERICENTER": 52.3083, "MEAN_ANOMALY": 307.9399, "EPHEMERIS_TYPE": 0, "CLASSIFICATION_TYPE": "U", "NORAD_CAT_ID": 44804, "ELEMENT_SET_NO": 999, "REV_AT_EPOCH": 33665, "BSTAR": 0.00035213938, "MEAN_MOTION_DOT": 7.37e-05, "MEAN_MOTION_DDOT": 0}, "tle": {"line1": "1 44804U 19081A   25356.57615378  .00007370  00000+0  35214-3 0  9996", "line2": "2 44804  97.4572  56.0348 0013784  52.3083 307.9399 15.19234379336653"}}, "geometry": {"type": "Point", "coordinates": [-115.54581254332147, 47.213101930726246]}}, {"type": "Feature", "properties": {"norad_id": 44819, "name": "GAOFEN-12 01", "group": "resource", "lat": -81.34145186904401, "lon": 67.24739816544476, "alt_km": 634.5065898987941, "timestamp": "2025-12-22T20:43:45.500557+00:00", "meta": {"OBJECT_NAME": "GAOFEN-12 01", "OBJECT_ID": "2019-082A", "EPOCH": "2025-12-22T14:37:51.708000", "MEAN_MOTION": 14.80668193, "ECCENTRICITY": 0.00020004, "INCLINATION": 97.8124, "RA_OF_ASC_NODE": 2.6315, "ARG_OF_PERICENTER": 187.2476, "MEAN_ANOMALY": 172.8708, "EPHEMERIS_TYPE": 0, "CLASSIFICATION_TYPE": "U", "NORAD_CAT_ID": 44819, "ELEMENT_SET_NO": 999, "REV_AT_EPOCH": 32796, "BSTAR": 6.2517569e-05, "MEAN_MOTION_DOT": 4.3e-06, "MEAN_MOTION_DDOT": 0}, "tle": {"line1": "1 44819U 19082A   25356.60962625  .00000430  00000+0  62518-4 0  9995", "line2": "2 44819  97.8124   2.6315 0002000 187.2476 172.8708 14.80668193327969"}}, "geometry": {"type": "Point", "coordinates": [67.24739816544476, -81.34145186904401]}}, {"type": "Feature", "properties": {"norad_id": 44873, "name": "CSG-1", "group": "resource", "lat": 76.4330788362163, "lon": 143.0079856056657, "alt_km": 614.2951844693071, "timestamp": "2025-12-22T20:43:45.500567+00:00", "meta": {"OBJECT_NAME": "CSG-1", "OBJECT_ID": "2019-092A", "EPOCH": "2025-12-22T13:53:36.911616", "MEAN_MOTION": 14.82152799, "ECCENTRICITY": 0.00014711, "INCLINATION": 97.8804, "RA_OF_ASC_NODE": 177.7548, "ARG_OF_PERICENTER": 85.4598, "MEAN_ANOMALY": 274.6783, "EPHEMERIS_TYPE": 0, "CLASSIFICATION_TYPE": "U", "NORAD_CAT_ID": 44873, "ELEMENT_SET_NO": 999, "REV_AT_EPOCH": 32531, "BSTAR": 6.9748001e-05, "MEAN_MOTION_DOT": 5.03e-06, "MEAN_MOTION_DDOT": 0}, "tle": {"line1": "1 44873U 19092A   25356.57889944  .00000503  00000+0  69748-4 0  9997", "line2": "2 44873  97.8804 177.7548 0001471  85.4598 274.6783 14.82152799325314"}}, "geometry": {"type": "Point", "coordinates": [143.0079856056657, 76.4330788362163]}}, {"type": "Feature", "properties": {"norad_id": 46277, "name": "NEMO-HD", "group": "resource", "lat": -17.954864047390014, "lon": -126.52093810184161, "alt_km": 450.40090047843023, "timestamp": "2025-12-22T20:43:45.500577+00:00", "meta": {"OBJECT_NAME": "NEMO-HD", "OBJECT_ID": "2020-061F", "EPOCH": "2025-12-22T13:38:12.697728", "MEAN_MOTION": 15.40516852, "ECCENTRICITY": 0.00012459, "INCLINATION": 97.2194, "RA_OF_ASC_NODE": 55.5415, "ARG_OF_PERICENTER": 52.0829, "MEAN_ANOMALY": 308.053, "EPHEMERIS_TYPE": 0, "CLASSIFICATION_TYPE": "U", "NORAD_CAT_ID": 46277, "ELEMENT_SET_NO": 999, "REV_AT_EPOCH": 29475, "BSTAR": 0.00026867498, "MEAN_MOTION_DOT": 0.00010824, "MEAN_MOTION_DDOT": 0}, "tle": {"line1": "1 46277U 20061F   25356.56820252  .00010824  00000+0  26867-3 0  9992", "line2": "2 46277  97.2194  55.5415 0001245  52.0829 308.0530 15.40516852294756"}}, "geometry": {"type": "Point", "coordinates": [-126.52093810184161, -17.954864047390014]}}, {"type": "Feature", "properties": {"norad_id": 46984, "name": "SENTINEL-6A", "group": "resource", "lat": -18.41445372175401, "lon": 132.76703352494425, "alt_km": 1339.74437982169, "timestamp": "2025-12-22T20:43:45.500587+00:00", "meta": {"OBJECT_NAME": "SENTINEL-6A", "OBJECT_ID": "2020-086A", "EPOCH": "2025-12-22T09:35:29.912928", "MEAN_MOTION": 12.80930798, "ECCENTRICITY": 0.00077288, "INCLINATION": 66.0396, "RA_OF_ASC_NODE": 142.244, "ARG_OF_PERICENTER": 269.3733, "MEAN_ANOMALY": 90.6397, "EPHEMERIS_TYPE": 0, "CLASSIFICATION_TYPE": "U", "NORAD_CAT_ID": 46984, "ELEMENT_SET_NO": 999, "REV_AT_EPOCH": 23768, "BSTAR": -5.4547464e-05, "MEAN_MOTION_DOT": -7.4e-07, "MEAN_MOTION_DDOT": 0}, "tle": {"line1": "1 46984U 20086A   25356.39965177 -.00000074  00000+0 -54547-4 0  9996", "line2": "2 46984  66.0396 142.2440 0007728 269.3733  90.6397 12.80930798237684"}}, "geometry": {"type": "Point", "coordinates": [132.76703352494425, -18.41445372175401]}}, {"type": "Feature", "properties": {"norad_id": 48079, "name": "GAOFEN-12 02", "group": "resource", "lat": -72.37747026147336, "lon": 17.048391298346722, "alt_km": 636.736896104795, "timestamp": "2025-12-22T20:43:45.500597+00:00", "meta": {"OBJECT_NAME": "GAOFEN-12 02", "OBJECT_ID": "2021-026A", "EPOCH": "2025-12-22T14:34:36.622848", "MEAN_MOTION": 14.80686212, "ECCENTRICITY": 0.00035934, "INCLINATION": 97.9856, "RA_OF_ASC_NODE": 350.5663, "ARG_OF_PERICENTER": 81.3337, "MEAN_ANOMALY": 278.8282, "EPHEMERIS_TYPE": 0, "CLASSIFICATION_TYPE": "U", "NORAD_CAT_ID": 48079, "ELEMENT_SET_NO": 999, "REV_AT_EPOCH": 25563, "BSTAR": 6.4244994e-05, "MEAN_MOTION_DOT": 4.41e-06, "MEAN_MOTION_DDOT": 0}, "tle": {"line1": "1 48079U 21026A   25356.60736832  .00000441  00000+0  64245-4 0  9998", "line2": "2 48079  97.9856 350.5663 0003593  81.3337 278.8282 14.80686212255633"}}, "geometry": {"type": "Point", "coordinates": [17.048391298346722, -72.37747026147336]}}, {"type": "Feature", "properties": {"norad_id": 48268, "name": "PLEIADES NEO 3", "group": "resource", "lat": 28.39935379203405, "lon": 64.85723097369437, "alt_km": 622.2909895635776, "timestamp": "2025-12-22T20:43:45.500607+00:00", "meta": {"OBJECT_NAME": "PLEIADES NEO 3", "OBJECT_ID": "2021-034A", "EPOCH": "2025-12-22T14:07:01.589376", "MEAN_MOTION": 14.8167613, "ECCENTRICITY": 0.00013983, "INCLINATION": 97.8949, "RA_OF_ASC_NODE": 68.8885, "ARG_OF_PERICENTER": 88.8663, "MEAN_ANOMALY": 271.271, "EPHEMERIS_TYPE": 0, "CLASSIFICATION_TYPE": "U", "NORAD_CAT_ID": 48268, "ELEMENT_SET_NO": 999, "REV_AT_EPOCH": 25150, "BSTAR": 8.7664641e-05, "MEAN_MOTION_DOT": 6.38e-06, "MEAN_MOTION_DDOT": 0}, "tle": {"line1": "1 48268U 21034A   25356.58821284  .00000638  00000+0  87665-4 0  9999", "line2": "2 48268  97.8949  68.8885 0001398  88.8663 271.2710 14.81676130251509"}}, "geometry": {"type": "Point", "coordinates": [64.85723097369437, 28.39935379203405]}}, {"type": "Feature", "properties": {"norad_id": 49070, "name": "PLEIADES NEO 4", "group": "resource", "lat": -28.671549693617784, "lon": -115.19626102446723, "alt_km": 630.493523232446, "timestamp": "2025-12-22T20:43:45.500617+00:00", "meta": {"OBJECT_NAME": "PLEIADES NEO 4", "OBJECT_ID": "2021-073E", "EPOCH": "2025-12-20T17:32:43.601280", "MEAN_MOTION": 14.81672177, "ECCENTRICITY": 0.00013249, "INCLINATION": 97.8951, "RA_OF_ASC_NODE": 67.0538, "ARG_OF_PERICENTER": 89.6187, "MEAN_ANOMALY": 270.5178, "EPHEMERIS_TYPE": 0, "CLASSIFICATION_TYPE": "U", "NORAD_CAT_ID": 49070, "ELEMENT_SET_NO": 999, "REV_AT_EPOCH": 23494, "BSTAR": -3.6645539e-05, "MEAN_MOTION_DOT": -3.4e-06, "MEAN_MOTION_DDOT": 0}, "tle": {"line1": "1 49070U 21073E   25354.73106020 -.00000340  00000+0 -36646-4 0  9998", "line2": "2 49070  97.8951  67.0538 0001324  89.6187 270.5178 14.81672177234945"}}, "geometry": {"type": "Point", "coordinates": [-115.19626102446723, -28.671549693617784]}}, {"type": "Feature", "properties": {"norad_id": 49260, "name": "LANDSAT 9", "group": "resource", "lat": 50.7787494464434, "lon": 54.64110214883366, "alt_km": 697.2413227607612, "timestamp": "2025-12-22T20:43:45.500627+00:00", "meta": {"OBJECT_NAME": "LANDSAT 9", "OBJECT_ID": "2021-088A", "EPOCH": "2025-12-22T04:00:46.820448", "MEAN_MOTION": 14.57107311, "ECCENTRICITY": 0.00010969, "INCLINATION": 98.2082, "RA_OF_ASC_NODE": 64.1411, "ARG_OF_PERICENTER": 92.1873, "MEAN_ANOMALY": 267.9451, "EPHEMERIS_TYPE": 0, "CLASSIFICATION_TYPE": "U", "NORAD_CAT_ID": 49260, "ELEMENT_SET_NO": 999, "REV_AT_EPOCH": 22522, "BSTAR": 0.00010286136, "MEAN_MOTION_DOT": 4.18e-06, "MEAN_MOTION_DDOT": 0}, "tle": {"line1": "1 49260U 21088A   25356.16720857  .00000418  00000+0  10286-3 0  9999", "line2": "2 49260  98.2082  64.1411 0001096  92.1873 267.9451 14.57107311225222"}}, "geometry": {"type": "Point", "coordinates": [54.64110214883366, 50.7787494464434]}}, {"type": "Feature", "properties": {"norad_id": 51444, "name": "CSG-2", "group": "resource", "lat": -76.48975324626328, "lon": -37.1663835270138, "alt_km": 630.9129539926098, "timestamp": "2025-12-22T20:43:45.500637+00:00", "meta": {"OBJECT_NAME": "CSG-2", "OBJECT_ID": "2022-008A", "EPOCH": "2025-12-22T14:42:13.079232", "MEAN_MOTION": 14.82154638, "ECCENTRICITY": 0.00015044, "INCLINATION": 97.88, "RA_OF_ASC_NODE": 177.7867, "ARG_OF_PERICENTER": 84.586, "MEAN_ANOMALY": 275.5525, "EPHEMERIS_TYPE": 0, "CLASSIFICATION_TYPE": "U", "NORAD_CAT_ID": 51444, "ELEMENT_SET_NO": 999, "REV_AT_EPOCH": 21043, "BSTAR": 0.0001138906, "MEAN_MOTION_DOT": 8.55e-06, "MEAN_MOTION_DDOT": 0}, "tle": {"line1": "1 51444U 22008A   25356.61265138  .00000855  00000+0  11389-3 0  9995", "line2": "2 51444  97.8800 177.7867 0001504  84.5860 275.5525 14.82154638210439"}}, "geometry": {"type": "Point", "coordinates": [-37.1663835270138, -76.48975324626328]}}]}